COMMENT,ORIGINATOR,NORAD_CAT_ID,OBJECT_NAME,OBJECT_TYPE,CLASSIFICATION_TYPE,INTLDES,EPOCH,EPOCH_MICROSECONDS,MEAN_MOTION,ECCENTRICITY,INCLINATION,RA_OF_ASC_NODE,ARG_OF_PERICENTER,MEAN_ANOMALY,EPHEMERIS_TYPE,ELEMENT_SET_NO,REV_AT_EPOCH,BSTAR,MEAN_MOTION_DOT,MEAN_MOTION_DDOT,FILE,TLE_LINE0,TLE_LINE1,TLE_LINE2,OBJECT_ID,OBJECT_NUMBER,SEMIMAJOR_AXIS,PERIOD,APOGEE,PERIGEE,DECAYED
"GENERATED VIA SPACETRACK.ORG API","18 SPCS","55097","SPACEBEE-160","PAYLOAD","U","23001CS","2023-01-29 21:39:23","321664","15.14439048","0.0017878","97.4997","91.6282","120.6594","239.6403","0","999","413","0.00058423","0.00010721","0","3765015","0 SPACEBEE-160","1 55097U 23001CS  23029.90235326  .00010721  00000-0  58423-3 0  9994","2 55097  97.4997  91.6282 0017878 120.6594 239.6403 15.14439048  4133","2023-001CS","55097","6900.819","95.085","535.021","510.347","0"
"GENERATED VIA SPACETRACK.ORG API","18 SPCS","55097","SPACEBEE-160","PAYLOAD","U","23001CS","2023-01-30 13:30:50","136192","15.1445296","0.0017936","97.4997","92.2795","118.4841","241.82","0","999","423","0.00054206","0.00009945","0","3765576","0 SPACEBEE-160","1 55097U 23001CS  23030.56308028  .00009945  00000-0  54206-3 0  9999","2 55097  97.4997  92.2795 0017936 118.4841 241.8200 15.14452960  4233","2023-001CS","55097","6900.777","95.084","535.019","510.265","0"
"GENERATED VIA SPACETRACK.ORG API","18 SPCS","55097","SPACEBEE-160","PAYLOAD","U","23001CS","2023-01-30 15:05:58","788960","15.14454439","0.0017951","97.4997","92.3446","118.2616","242.0431","0","999","424","0.00053578","0.0000983","0","3765585","0 SPACEBEE-160","1 55097U 23001CS  23030.62915265  .00009830  00000-0  53578-3 0  9997","2 55097  97.4997  92.3446 0017951 118.2616 242.0431 15.14454439  4245","2023-001CS","55097","6900.772","95.084","535.025","510.250","0"
"GENERATED VIA SPACETRACK.ORG API","18 SPCS","55097","SPACEBEE-160","PAYLOAD","U","23001CS","2023-01-30 21:26:33","345600","15.14460015","0.0017978","97.4997","92.6051","117.3789","242.9275","0","999","428","0.00053868","0.00009885","0","3765849","0 SPACEBEE-160","1 55097U 23001CS  23030.89344150  .00009885  00000-0  53868-3 0  9997","2 55097  97.4997  92.6051 0017978 117.3789 242.9275 15.14460015  4286","2023-001CS","55097","6900.755","95.083","535.027","510.214","0"
"GENERATED VIA SPACETRACK.ORG API","18 SPCS","55097","SPACEBEE-160","PAYLOAD","U","23001CS","2023-01-31 13:17:59","358336","15.14475679","0.0018014","97.4996","93.2562","115.2842","245.0259","0","999","438","0.00062024","0.00011399","0","3766475","0 SPACEBEE-160","1 55097U 23001CS  23031.55415924  .00011399  00000-0  62024-3 0  9996","2 55097  97.4996  93.2562 0018014 115.2842 245.0259 15.14475679  4387","2023-001CS","55097","6900.708","95.082","535.004","510.142","0"
"GENERATED VIA SPACETRACK.ORG API","18 SPCS","55097","SPACEBEE-160","PAYLOAD","U","23001CS","2023-01-31 21:13:42","141792","15.14483268","0.0018026","97.4996","93.5818","114.1656","246.1463","0","999","443","0.0006215","0.00011425","0","3766747","0 SPACEBEE-160","1 55097U 23001CS  23031.88451553  .00011425  00000-0  62150-3 0  9990","2 55097  97.4996  93.5818 0018026 114.1656 246.1463 15.14483268  4436","2023-001CS","55097","6900.685","95.082","534.989","510.111","0"
"GENERATED VIA SPACETRACK.ORG API","18 SPCS","55097","SPACEBEE-160","PAYLOAD","U","23001CS","2023-02-01 05:09:24","738624","15.14491933","0.0018011","97.4994","93.9073","113.1545","247.1587","0","999","448","0.00062332","0.00011462","0","3767165","0 SPACEBEE-160","1 55097U 23001CS  23032.21486966  .00011462  00000-0  62332-3 0  9997","2 55097  97.4994  93.9073 0018011 113.1545 247.1587 15.14491933  4482","2023-001CS","55097","6900.658","95.081","534.952","510.095","0"
"GENERATED VIA SPACETRACK.ORG API","18 SPCS","55097","SPACEBEE-160","PAYLOAD","U","23001CS","2023-02-01 13:05:07","213632","15.14498622","0.0017991","97.4993","94.2329","112.1979","248.1164","0","999","453","0.00058735","0.00010797","0","3767525","0 SPACEBEE-160","1 55097U 23001CS  23032.54522238  .00010797  00000-0  58735-3 0  9998","2 55097  97.4993  94.2329 0017991 112.1979 248.1164 15.14498622  4535","2023-001CS","55097","6900.638","95.081","534.918","510.088","0"
"GENERATED VIA SPACETRACK.ORG API","18 SPCS","55097","SPACEBEE-160","PAYLOAD","U","23001CS","2023-02-02 11:17:05","281728","15.14524456","0.001793","97.499","95.1447","109.4166","250.9005","0","999","467","0.00074645","0.00013755","0","3768366","0 SPACEBEE-160","1 55097U 23001CS  23033.47020002  .00013755  00000-0  74645-3 0  9998","2 55097  97.4990  95.1447 0017930 109.4166 250.9005 15.14524456  4678","2023-001CS","55097","6900.560","95.079","534.797","510.052","0"
"GENERATED VIA SPACETRACK.ORG API","18 SPCS","55097","SPACEBEE-160","PAYLOAD","U","23001CS","2023-02-02 22:23:03","925248","15.14531835","0.0017934","97.4987","95.6004","107.975","252.3439","0","999","474","0.00058874","0.00010833","0","3769234","0 SPACEBEE-160","1 55097U 23001CS  23033.93268432  .00010833  00000-0  58874-3 0  9990","2 55097  97.4987  95.6004 0017934 107.9750 252.3439 15.14531835  4748","2023-001CS","55097","6900.537","95.079","534.778","510.027","0"
"GENERATED VIA SPACETRACK.ORG API","18 SPCS","55097","SPACEBEE-160","PAYLOAD","U","23001CS","2023-02-03 14:14:27","141216","15.14549371","0.0017899","97.4985","96.2515","105.8701","254.4506","0","999","484","0.00065526","0.00012072","0","3770323","0 SPACEBEE-160","1 55097U 23001CS  23034.59336969  .00012072  00000-0  65526-3 0  9993","2 55097  97.4985  96.2515 0017899 105.8701 254.4506 15.14549371  4846","2023-001CS","55097","6900.484","95.078","534.700","509.998","0"
"GENERATED VIA SPACETRACK.ORG API","18 SPCS","55097","SPACEBEE-160","PAYLOAD","U","23001CS","2023-02-04 21:57:11","432160","15.14587498","0.0017895","97.4982","97.5538","101.5728","258.7514","0","999","504","0.0007163","0.00013219","0","3772471","0 SPACEBEE-160","1 55097U 23001CS  23035.91471565  .00013219  00000-0  71630-3 0  9999","2 55097  97.4982  97.5538 0017895 101.5728 258.7514 15.14587498  5041","2023-001CS","55097","6900.368","95.075","534.581","509.885","0"
"GENERATED VIA SPACETRACK.ORG API","18 SPCS","55097","SPACEBEE-160","PAYLOAD","U","23001CS","2023-02-04 21:57:11","432160","15.14587498","0.0017895","97.4982","97.5538","101.5728","258.7514","0","999","504","0.0007163","0.00013219","0","3772514","0 SPACEBEE-160","1 55097U 23001CS  23035.91471565  .00013219  00000-0  71630-3 0  9999","2 55097  97.4982  97.5538 0017895 101.5728 258.7514 15.14587498  5041","2023-001CS","55097","6900.368","95.075","534.581","509.885","0"
"GENERATED VIA SPACETRACK.ORG API","18 SPCS","55097","SPACEBEE-160","PAYLOAD","U","23001CS","2023-02-05 02:42:35","836128","15.1459306","0.0017913","97.4982","97.7491","100.9099","259.4149","0","999","507","0.0006955","0.00012835","0","3773728","0 SPACEBEE-160","1 55097U 23001CS  23036.11291477  .00012835  00000-0  69550-3 0  9995","2 55097  97.4982  97.7491 0017913 100.9099 259.4149 15.14593060  5073","2023-001CS","55097","6900.351","95.075","534.577","509.856","0"
"GENERATED VIA SPACETRACK.ORG API","18 SPCS","55097","SPACEBEE-160","PAYLOAD","U","23001CS","2023-02-05 16:58:48","654912","15.14609573","0.0017941","97.498","98.335","99.0388","261.2875","0","999","516","0.00068483","0.00012643","0","3774172","0 SPACEBEE-160","1 55097U 23001CS  23036.70750758  .00012643  00000-0  68483-3 0  9993","2 55097  97.4980  98.3350 0017941  99.0388 261.2875 15.14609573  5166","2023-001CS","55097","6900.301","95.074","534.546","509.786","0"
"GENERATED VIA SPACETRACK.ORG API","18 SPCS","55097","SPACEBEE-160","PAYLOAD","U","23001CS","2023-02-06 02:29:36","889152","15.14621009","0.0017987","97.4979","98.7257","97.7576","262.5699","0","999","522","0.00070423","0.00013008","0","3774710","0 SPACEBEE-160","1 55097U 23001CS  23037.10389918  .00013008  00000-0  70423-3 0  9997","2 55097  97.4979  98.7257 0017987  97.7576 262.5699 15.14621009  5221","2023-001CS","55097","6900.266","95.073","534.543","509.720","0"
"GENERATED VIA SPACETRACK.ORG API","18 SPCS","55097","SPACEBEE-160","PAYLOAD","U","23001CS","2023-02-06 02:29:36","889152","15.14621009","0.0017987","97.4979","98.7257","97.7576","262.5699","0","999","522","0.00070423","0.00013008","0","3775254","0 SPACEBEE-160","1 55097U 23001CS  23037.10389918  .00013008  00000-0  70423-3 0  9997","2 55097  97.4979  98.7257 0017987  97.7576 262.5699 15.14621009  5221","2023-001CS","55097","6900.266","95.073","534.543","509.720","0"
"GENERATED VIA SPACETRACK.ORG API","18 SPCS","55097","SPACEBEE-160","PAYLOAD","U","23001CS","2023-02-06 16:45:48","685824","15.1464323","0.0018031","97.4977","99.3117","95.787","264.5418","0","999","531","0.00090708","0.00016793","0","3776034","0 SPACEBEE-160","1 55097U 23001CS  23037.69848016  .00016793  00000-0  90708-3 0  9992","2 55097  97.4977  99.3117 0018031  95.7870 264.5418 15.14643230  5318","2023-001CS","55097","6900.199","95.072","534.506","509.622","0"
"GENERATED VIA SPACETRACK.ORG API","18 SPCS","55097","SPACEBEE-160","PAYLOAD","U","23001CS","2023-02-07 03:51:44","27136","15.14659232","0.0018023","97.4975","99.7674","94.3886","265.9405","0","999","538","0.0009259","0.00017151","0","3776603","0 SPACEBEE-160","1 55097U 23001CS  23038.16092624  .00017151  00000-0  92590-3 0  9991","2 55097  97.4975  99.7674 0018023  94.3886 265.9405 15.14659232  5388","2023-001CS","55097","6900.150","95.071","534.451","509.579","0"
"GENERATED VIA SPACETRACK.ORG API","18 SPCS","55097","SPACEBEE-160","PAYLOAD","U","23001CS","2023-02-07 03:51:44","27136","15.14659232","0.0018023","97.4975","99.7674","94.3886","265.9405","0","999","538","0.0009259","0.00017151","0","3777208","0 SPACEBEE-160","1 55097U 23001CS  23038.16092624  .00017151  00000-0  92590-3 0  9991","2 55097  97.4975  99.7674 0018023  94.3886 265.9405 15.14659232  5388","2023-001CS","55097","6900.150","95.071","534.451","509.579","0"
